COMMENT,ORIGINATOR,NORAD_CAT_ID,OBJECT_NAME,OBJECT_TYPE,CLASSIFICATION_TYPE,INTLDES,EPOCH,EPOCH_MICROSECONDS,MEAN_MOTION,ECCENTRICITY,INCLINATION,RA_OF_ASC_NODE,ARG_OF_PERICENTER,MEAN_ANOMALY,EPHEMERIS_TYPE,ELEMENT_SET_NO,REV_AT_EPOCH,BSTAR,MEAN_MOTION_DOT,MEAN_MOTION_DDOT,FILE,TLE_LINE0,TLE_LINE1,TLE_LINE2,OBJECT_ID,OBJECT_NUMBER,SEMIMAJOR_AXIS,PERIOD,APOGEE,PERIGEE
GENERATED VIA SPACETRACK.ORG API,18 SPCS,41616,FLOCK 2P 5,PAYLOAD,U,16040T,8/11/2018 22:09,929312,15.24556401,0.0011603,97.4139,288.1983,52.7761,307.4533,0,999,11871,4.95E-05,1.15E-05,0,2318672,0 FLOCK 2P 5,1 41616U 16040T   18223.92345983 +.00001149 +00000-0 +49528-4 0  9995,2 41616 097.4139 288.1983 0011603 052.7761 307.4533 15.24556401118717,2016-040T,41616,6870.254,94.453,500.091,484.148
GENERATED VIA SPACETRACK.ORG API,18 SPCS,41616,FLOCK 2P 5,PAYLOAD,U,16040T,8/12/2018 10:45,670240,15.24558978,0.0011554,97.4138,288.7179,51.0937,309.1329,0,999,11879,5.74E-05,1.34E-05,0,2318673,0 FLOCK 2P 5,1 41616U 16040T   18224.44853785 +.00001342 +00000-0 +57351-4 0  9995,2 41616 097.4138 288.7179 0011554 051.0937 309.1329 15.24558978118792,2016-040T,41616,6870.247,94.453,500.049,484.174
GENERATED VIA SPACETRACK.ORG API,18 SPCS,41616,FLOCK 2P 5,PAYLOAD,U,16040T,8/12/2018 21:47,599872,15.24559861,0.0011512,97.4137,289.1725,49.6125,310.6115,0,999,11886,5.55E-05,1.30E-05,0,2318674,0 FLOCK 2P 5,1 41616U 16040T   18224.90798148 +.00001297 +00000-0 +55519-4 0  9990,2 41616 097.4137 289.1725 0011512 049.6125 310.6115 15.24559861118869,2016-040T,41616,6870.244,94.453,500.018,484.2
GENERATED VIA SPACETRACK.ORG API,18 SPCS,41616,FLOCK 2P 5,PAYLOAD,U,16040T,8/13/2018 21:25,210816,15.24561544,0.0011437,97.4136,290.1468,46.5312,313.6875,0,999,11901,5.02E-05,1.17E-05,0,2318827,0 FLOCK 2P 5,1 41616U 16040T   18225.89250244 +.00001166 +00000-0 +50185-4 0  9998,2 41616 097.4136 290.1468 0011437 046.5312 313.6875 15.24561544119019,2016-040T,41616,6870.239,94.453,499.961,484.246
GENERATED VIA SPACETRACK.ORG API,18 SPCS,41616,FLOCK 2P 5,PAYLOAD,U,16040T,8/14/2018 21:02,751776,15.2456294,0.0011352,97.4135,291.121,43.518,316.6951,0,999,11916,4.49E-05,1.04E-05,0,2319266,0 FLOCK 2P 5,1 41616U 16040T   18226.87702259 +.00001035 +00000-0 +44878-4 0  9992,2 41616 097.4135 291.1210 0011352 043.5180 316.6951 15.24562940119165,2016-040T,41616,6870.235,94.453,499.899,484.301
GENERATED VIA SPACETRACK.ORG API,18 SPCS,41616,FLOCK 2P 5,PAYLOAD,U,16040T,8/15/2018 11:13,215008,15.24564236,0.00113,97.4134,291.7056,41.6277,318.5819,0,999,11925,4.54E-05,1.05E-05,0,2319254,0 FLOCK 2P 5,1 41616U 16040T   18227.46773397  .00001048  00000-0  45388-4 0  9990,2 41616  97.4134 291.7056 0011300  41.6277 318.5819 15.24564236119251,2016-040T,41616,6870.231,94.453,499.859,484.332
GENERATED VIA SPACETRACK.ORG API,18 SPCS,41616,FLOCK 2P 5,PAYLOAD,U,16040T,8/15/2018 20:40,123392,15.24565437,0.0011268,97.4133,292.0952,40.3483,319.8589,0,999,11931,4.71E-05,1.09E-05,0,2319451,0 FLOCK 2P 5,1 41616U 16040T   18227.86154078 +.00001089 +00000-0 +47051-4 0  9997,2 41616 097.4133 292.0952 0011268 040.3483 319.8589 15.24565437119316,2016-040T,41616,6870.227,94.453,499.834,484.351
GENERATED VIA SPACETRACK.ORG API,18 SPCS,41616,FLOCK 2P 5,PAYLOAD,U,16040T,8/16/2018 20:18,371456,15.24567446,0.001118,97.4132,293.0695,37.154,323.0469,0,999,11946,4.53E-05,1.05E-05,0,2319862,0 FLOCK 2P 5,1 41616U 16040T   18228.84605754  .00001045  00000-0  45288-4 0  9990,2 41616  97.4132 293.0695 0011180  37.1540 323.0469 15.24567446119463,2016-040T,41616,6870.221,94.453,499.767,484.405
GENERATED VIA SPACETRACK.ORG API,18 SPCS,41616,FLOCK 2P 5,PAYLOAD,U,16040T,8/16/2018 21:52,184480,15.24567557,0.0011173,97.4132,293.1344,36.9451,323.2554,0,999,11947,4.51E-05,1.04E-05,0,2319883,0 FLOCK 2P 5,1 41616U 16040T   18228.91169195 +.00001040 +00000-0 +45076-4 0  9992,2 41616 097.4132 293.1344 0011173 036.9451 323.2554 15.24567557119476,2016-040T,41616,6870.221,94.453,499.762,484.41
GENERATED VIA SPACETRACK.ORG API,18 SPCS,41616,FLOCK 2P 5,PAYLOAD,U,16040T,8/17/2018 19:56,501152,15.24568998,0.0011079,97.4131,294.0437,34.0062,326.1883,0,999,11961,4.08E-05,9.33E-06,0,2320636,0 FLOCK 2P 5,1 41616U 16040T   18229.83057293 +.00000933 +00000-0 +40758-4 0  9991,2 41616 097.4131 294.0437 0011079 034.0062 326.1883 15.24568998119613,2016-040T,41616,6870.216,94.452,499.693,484.47
GENERATED VIA SPACETRACK.ORG API,18 SPCS,41616,FLOCK 2P 5,PAYLOAD,U,16040T,8/18/2018 3:48,516160,15.24569632,0.0011046,97.413,294.3685,32.9514,327.241,0,999,11966,4.02E-05,9.20E-06,0,2320450,0 FLOCK 2P 5,1 41616U 16040T   18230.15874440  .00000920  00000-0  40228-4 0  9997,2 41616  97.4130 294.3685 0011046  32.9514 327.2410 15.24569632119662,2016-040T,41616,6870.215,94.452,499.668,484.491
GENERATED VIA SPACETRACK.ORG API,18 SPCS,41616,FLOCK 2P 5,PAYLOAD,U,16040T,8/18/2018 21:08,279712,15.2457168,0.0010975,97.413,295.0829,30.6361,329.5515,0,999,11977,4.38E-05,1.01E-05,0,2321089,0 FLOCK 2P 5,1 41616U 16040T   18230.88072083 +.00001009 +00000-0 +43820-4 0  9990,2 41616 097.4130 295.0829 0010975 030.6361 329.5515 15.24571680119774,2016-040T,41616,6870.208,94.452,499.613,484.533
GENERATED VIA SPACETRACK.ORG API,18 SPCS,41616,FLOCK 2P 5,PAYLOAD,U,16040T,8/19/2018 11:18,434496,15.24573108,0.0010914,97.413,295.6674,28.7281,331.4556,0,999,11986,4.56E-05,1.05E-05,0,2321070,0 FLOCK 2P 5,1 41616U 16040T   18231.47142864  .00001052  00000-0  45559-4 0  9990,2 41616  97.4130 295.6674 0010914  28.7281 331.4556 15.24573108119864,2016-040T,41616,6870.204,94.452,499.567,484.571
GENERATED VIA SPACETRACK.ORG API,18 SPCS,41616,FLOCK 2P 5,PAYLOAD,U,16040T,8/19/2018 20:45,175264,15.24573744,0.0010872,97.413,296.0571,27.4334,332.7475,0,999,11992,4.41E-05,1.02E-05,0,2321598,0 FLOCK 2P 5,1 41616U 16040T   18231.86523351 +.00001017 +00000-0 +44130-4 0  9992,2 41616 097.4130 296.0571 0010872 027.4334 332.7475 15.24573744119920,2016-040T,41616,6870.202,94.452,499.536,484.598
GENERATED VIA SPACETRACK.ORG API,18 SPCS,41616,FLOCK 2P 5,PAYLOAD,U,16040T,8/20/2018 9:22,449632,15.2457531,0.0010814,97.4129,296.5767,25.696,334.4813,0,999,12000,4.70E-05,1.09E-05,0,2321661,0 FLOCK 2P 5,1 41616U 16040T   18232.39030613 +.00001088 +00000-0 +47022-4 0  9996,2 41616 097.4129 296.5767 0010814 025.6960 334.4813 15.24575310120008,2016-040T,41616,6870.197,94.452,499.492,484.633
GENERATED VIA SPACETRACK.ORG API,18 SPCS,41616,FLOCK 2P 5,PAYLOAD,U,16040T,8/20/2018 18:49,125600,15.24576107,0.0010778,97.4129,296.9664,24.3632,335.8113,0,999,12006,4.59E-05,1.06E-05,0,2321701,0 FLOCK 2P 5,1 41616U 16040T   18232.78411025  .00001059  00000-0  45856-4 0  9990,2 41616  97.4129 296.9664 0010778  24.3632 335.8113 15.24576107120068,2016-040T,41616,6870.195,94.452,499.465,484.655
GENERATED VIA SPACETRACK.ORG API,18 SPCS,41616,FLOCK 2P 5,PAYLOAD,U,16040T,8/20/2018 23:32,461856,15.2457645,0.0010754,97.4129,297.1612,23.7069,336.4662,0,999,12009,4.51E-05,1.04E-05,0,2321949,0 FLOCK 2P 5,1 41616U 16040T   18232.98101229 +.00001041 +00000-0 +45106-4 0  9993,2 41616 097.4129 297.1612 0010754 023.7069 336.4662 15.24576450120095,2016-040T,41616,6870.194,94.452,499.447,484.671
GENERATED VIA SPACETRACK.ORG API,18 SPCS,41616,FLOCK 2P 5,PAYLOAD,U,16040T,8/22/2018 21:13,741824,15.24580575,0.0010557,97.4128,299.0445,17.4076,342.7522,0,999,12038,4.25E-05,9.77E-06,0,2322581,0 FLOCK 2P 5,1 41616U 16040T   18234.88439516  .00000977  00000-0  42506-4 0  9995,2 41616  97.4128 299.0445 0010557  17.4076 342.7522 15.24580575120388,2016-040T,41616,6870.182,94.452,499.3,484.794
GENERATED VIA SPACETRACK.ORG API,18 SPCS,41616,FLOCK 2P 5,PAYLOAD,U,16040T,8/22/2018 22:48,461536,15.24581248,0.0010549,97.4128,299.1095,17.1335,343.0256,0,999,12039,4.54E-05,1.05E-05,0,2322633,0 FLOCK 2P 5,1 41616U 16040T   18234.95002849 +.00001048 +00000-0 +45382-4 0  9993,2 41616 097.4128 299.1095 0010549 017.1335 343.0256 15.24581248120393,2016-040T,41616,6870.18,94.452,499.292,484.797
GENERATED VIA SPACETRACK.ORG API,18 SPCS,41616,FLOCK 2P 5,PAYLOAD,U,16040T,8/23/2018 11:24,487936,15.24582857,0.0010493,97.4128,299.629,15.3391,344.8163,0,999,12047,4.76E-05,1.10E-05,0,2322957,0 FLOCK 2P 5,1 41616U 16040T   18235.47509824 +.00001102 +00000-0 +47585-4 0  9994,2 41616 097.4128 299.6290 0010493 015.3391 344.8163 15.24582857120477,2016-040T,41616,6870.175,94.452,499.249,484.831
GENERATED VIA SPACETRACK.ORG API,18 SPCS,41616,FLOCK 2P 5,PAYLOAD,U,16040T,8/23/2018 22:25,776480,15.24583476,0.0010446,97.4128,300.0836,13.7138,346.4381,0,999,12054,4.50E-05,1.04E-05,0,2323300,0 FLOCK 2P 5,1 41616U 16040T   18235.93453445 +.00001037 +00000-0 +44957-4 0  9999,2 41616 097.4128 300.0836 0010446 013.7138 346.4381 15.24583476120545,2016-040T,41616,6870.173,94.452,499.215,484.861
GENERATED VIA SPACETRACK.ORG API,18 SPCS,41616,FLOCK 2P 5,PAYLOAD,U,16040T,8/24/2018 3:09,21152,15.24583967,0.0010426,97.4128,300.2785,13.0227,347.1277,0,999,12057,4.50E-05,1.04E-05,0,2323144,0 FLOCK 2P 5,1 41616U 16040T   18236.13143543  .00001039  00000-0  45019-4 0  9999,2 41616  97.4128 300.2785 0010426  13.0227 347.1277 15.24583967120570,2016-040T,41616,6870.171,94.451,499.199,484.874
GENERATED VIA SPACETRACK.ORG API,18 SPCS,41616,FLOCK 2P 5,PAYLOAD,U,16040T,8/24/2018 22:03,977376,15.24586049,0.0010336,97.4127,301.0578,10.3201,349.8247,0,999,12069,4.75E-05,1.10E-05,0,2323809,0 FLOCK 2P 5,1 41616U 16040T   18236.91903909 +.00001099 +00000-0 +47466-4 0  9999,2 41616 097.4127 301.0578 0010336 010.3201 349.8247 15.24586049120693,2016-040T,41616,6870.165,94.451,499.131,484.929
GENERATED VIA SPACETRACK.ORG API,18 SPCS,41616,FLOCK 2P 5,PAYLOAD,U,16040T,8/25/2018 4:21,936576,15.24586665,0.0010308,97.4126,301.3175,9.3929,350.7499,0,999,12073,4.72E-05,1.09E-05,0,2323617,0 FLOCK 2P 5,1 41616U 16040T   18237.18157334  .00001092  00000-0  47170-4 0  9997,2 41616  97.4126 301.3175 0010308   9.3929 350.7499 15.24586665120731,2016-040T,41616,6870.163,94.451,499.11,484.947
